ONEWEB-0158             
1 48054U 21025N   24152.36042365 -.00000169  00000+0 -49687-3 0  9998
2 48054  87.8918 108.8661 0001973  87.6675 272.4680 13.13469021155597
ONEWEB-0157             
1 48055U 21025P   24152.38422769 -.00000077  00000+0 -24454-3 0  9994
2 48055  87.8917 108.8766 0001965  78.2896 281.8453 13.13469645155533
ONEWEB-0162             
1 48056U 21025Q   24152.42389886  .00000113  00000+0  27352-3 0  9991
2 48056  87.8913 108.8645 0001987  83.8030 276.3325 13.13467936155518
ONEWEB-0155             
1 48057U 21025R   24152.36835585 -.00000209  00000+0 -60718-3 0  9998
2 48057  87.8918 108.8861 0002105  84.6164 275.5206 13.13469444155643
ONEWEB-0149             
1 48058U 21025S   24152.38898754 -.00000006  00000+0 -50530-4 0  9995
2 48058  87.8914 108.8783 0001803  81.2731 278.8602 13.13469877155455
ONEWEB-0148             
1 48059U 21025T   24152.43025398 -.00000051  00000+0 -17368-3 0  9999
2 48059  87.8919 108.8791 0001503  70.1445 289.9846 13.13469087155586
ONEWEB-0160             
1 48060U 21025U   24152.36994253 -.00000233  00000+0 -67171-3 0  9997
2 48060  87.8918 108.8874 0002237 109.1644 250.9727 13.13469583155529
ONEWEB-0163             
1 48061U 21025V   24152.43183978 -.00000080  00000+0 -25314-3 0  9993
2 48061  87.8917 108.8679 0002077  75.3032 284.8327 13.13469348155654
